{"type": "FeatureCollection", "features": [ {"type": "Feature", "properties": {"norad_id": 66633, "name": "STARLINK-35948", "group": "last-30-days", "lat": -2.5259509386191663, "lon": 47.48234314268431, "alt_km": 326.9518598325976, "timestamp": "2025-12-04T21:36:14.653745+00:00", "meta": {"OBJECT_NAME": "STARLINK-35948", "OBJECT_ID": "2025-271S", "EPOCH": "2025-12-04T07:11:12.702912", "MEAN_MOTION": 15.81911377, "ECCENTRICITY": 0.00017387, "INCLINATION": 53.156, "RA_OF_ASC_NODE": 228.6031, "ARG_OF_PERICENTER": 302.1786, "MEAN_ANOMALY": 57.9069, "EPHEMERIS_TYPE": 0, "CLASSIFICATION_TYPE": "U", "NORAD_CAT_ID": 66633, "ELEMENT_SET_NO": 999, "REV_AT_EPOCH": 288, "BSTAR": -9.8824794e-05, "MEAN_MOTION_DOT": -0.0002113, "MEAN_MOTION_DDOT": 0}, "tle": {"line1": "1 66633U 25271S   25338.29945258 -.00021130  00000+0 -98825-4 0  9990", "line2": "2 66633  53.1560 228.6031 0001738 302.1786  57.9069 15.81911377  2881"}}, "geometry": {"type": "Point", "coordinates": [47.48234314268431, -2.5259509386191663]}}, {"type": "Feature", "properties": {"norad_id": 66634, "name": "STARLINK-35967", "group": "last-30-days", "lat": 4.1936433977209955, "lon": 42.45486373209558, "alt_km": 380.14834104797046, "timestamp": "2025-12-04T21:36:14.653756+00:00", "meta": {"OBJECT_NAME": "STARLINK-35967", "OBJECT_ID": "2025-271T", "EPOCH": "2025-12-04T16:17:20.200992", "MEAN_MOTION": 15.74398594, "ECCENTRICITY": 0.00354303, "INCLINATION": 53.1568, "RA_OF_ASC_NODE": 226.7021, "ARG_OF_PERICENTER": 33.0196, "MEAN_ANOMALY": 327.3026, "EPHEMERIS_TYPE": 0, "CLASSIFICATION_TYPE": "U", "NORAD_CAT_ID": 66634, "ELEMENT_SET_NO": 999, "REV_AT_EPOCH": 290, "BSTAR": -0.076050312, "MEAN_MOTION_DOT": -0.09405874, "MEAN_MOTION_DDOT": 0}, "tle": {"line1": "1 66634U 25271T   25338.67870603 -.09405874  00000+0 -76050-1 0  9997", "line2": "2 66634  53.1568 226.7021 0035430  33.0196 327.3026 15.74398594  2901"}}, "geometry": {"type": "Point", "coordinates": [42.45486373209558, 4.1936433977209955]}}, {"type": "Feature", "properties": {"norad_id": 66635, "name": "STARLINK-35955", "group": "last-30-days", "lat": -8.45207143122442, "lon": 51.96942382888977, "alt_km": 323.35837168457056, "timestamp": "2025-12-04T21:36:14.653767+00:00", "meta": {"OBJECT_NAME": "STARLINK-35955", "OBJECT_ID": "2025-271U", "EPOCH": "2025-12-04T04:08:02.562432", "MEAN_MOTION": 15.81682042, "ECCENTRICITY": 0.00049906, "INCLINATION": 53.1555, "RA_OF_ASC_NODE": 229.232, "ARG_OF_PERICENTER": 47.5506, "MEAN_ANOMALY": 312.5938, "EPHEMERIS_TYPE": 0, "CLASSIFICATION_TYPE": "U", "NORAD_CAT_ID": 66635, "ELEMENT_SET_NO": 999, "REV_AT_EPOCH": 286, "BSTAR": 0.0075810547, "MEAN_MOTION_DOT": 0.0176083, "MEAN_MOTION_DDOT": 0}, "tle": {"line1": "1 66635U 25271U   25338.17225188  .01760830  00000+0  75811-2 0  9996", "line2": "2 66635  53.1555 229.2320 0004990  47.5506 312.5938 15.81682042  2865"}}, "geometry": {"type": "Point", "coordinates": [51.96942382888977, -8.45207143122442]}}, {"type": "Feature", "properties": {"norad_id": 66636, "name": "STARLINK-35968", "group": "last-30-days", "lat": -8.286709212376673, "lon": 51.84356803439352, "alt_km": 318.54555345062454, "timestamp": "2025-12-04T21:36:14.653776+00:00", "meta": {"OBJECT_NAME": "STARLINK-35968", "OBJECT_ID": "2025-271V", "EPOCH": "2025-12-04T16:15:21.242016", "MEAN_MOTION": 15.82289405, "ECCENTRICITY": 0.00098018, "INCLINATION": 53.1552, "RA_OF_ASC_NODE": 226.6934, "ARG_OF_PERICENTER": 207.5046, "MEAN_ANOMALY": 152.546, "EPHEMERIS_TYPE": 0, "CLASSIFICATION_TYPE": "U", "NORAD_CAT_ID": 66636, "ELEMENT_SET_NO": 999, "REV_AT_EPOCH": 294, "BSTAR": 0.0043613195, "MEAN_MOTION_DOT": 0.01037255, "MEAN_MOTION_DDOT": 0}, "tle": {"line1": "1 66636U 25271V   25338.67732919  .01037255  00000+0  43613-2 0  9990", "line2": "2 66636  53.1552 226.6934 0009801 207.5046 152.5460 15.82289405  2946"}}, "geometry": {"type": "Point", "coordinates": [51.84356803439352, -8.286709212376673]}}, {"type": "Feature", "properties": {"norad_id": 66637, "name": "STARLINK-35953", "group": "last-30-days", "lat": -7.9177307502126135, "lon": 51.559080707028414, "alt_km": 331.45541926077567, "timestamp": "2025-12-04T21:36:14.653788+00:00", "meta": {"OBJECT_NAME": "STARLINK-35953", "OBJECT_ID": "2025-271W", "EPOCH": "2025-12-04T10:11:02.535360", "MEAN_MOTION": 15.81154634, "ECCENTRICITY": 0.00015761, "INCLINATION": 53.1554, "RA_OF_ASC_NODE": 227.9588, "ARG_OF_PERICENTER": 20.6444, "MEAN_ANOMALY": 339.4642, "EPHEMERIS_TYPE": 0, "CLASSIFICATION_TYPE": "U", "NORAD_CAT_ID": 66637, "ELEMENT_SET_NO": 999, "REV_AT_EPOCH": 290, "BSTAR": -0.0025393282, "MEAN_MOTION_DOT": -0.00481281, "MEAN_MOTION_DDOT": 0}, "tle": {"line1": "1 66637U 25271W   25338.42433490 -.00481281  00000+0 -25393-2 0  9994", "line2": "2 66637  53.1554 227.9588 0001576  20.6444 339.4642 15.81154634  2903"}}, "geometry": {"type": "Point", "coordinates": [51.559080707028414, -7.9177307502126135]}}, {"type": "Feature", "properties": {"norad_id": 66638, "name": "STARLINK-35972", "group": "last-30-days", "lat": -8.129934187599941, "lon": 51.72290317298018, "alt_km": 335.3735440662549, "timestamp": "2025-12-04T21:36:14.653802+00:00", "meta": {"OBJECT_NAME": "STARLINK-35972", "OBJECT_ID": "2025-271X", "EPOCH": "2025-12-04T00:00:02.000160", "MEAN_MOTION": 15.82225759, "ECCENTRICITY": 8.193e-05, "INCLINATION": 53.156, "RA_OF_ASC_NODE": 230.0843, "ARG_OF_PERICENTER": 74.7905, "MEAN_ANOMALY": 30.343, "EPHEMERIS_TYPE": 0, "CLASSIFICATION_TYPE": "U", "NORAD_CAT_ID": 66638, "ELEMENT_SET_NO": 999, "REV_AT_EPOCH": 284, "BSTAR": -0.0090968916, "MEAN_MOTION_DOT": -0.01662822, "MEAN_MOTION_DDOT": 0}, "tle": {"line1": "1 66638U 25271X   25338.00002315 -.01662822  00000+0 -90969-2 0  9991", "line2": "2 66638  53.1560 230.0843 0000819  74.7905  30.3430 15.82225759  2844"}}, "geometry": {"type": "Point", "coordinates": [51.72290317298018, -8.129934187599941]}}, {"type": "Feature", "properties": {"norad_id": 66639, "name": "STARLINK-35908", "group": "last-30-days", "lat": -21.004914850157896, "lon": 62.27136765482147, "alt_km": 322.4783434256042, "timestamp": "2025-12-04T21:36:14.653812+00:00", "meta": {"OBJECT_NAME": "STARLINK-35908", "OBJECT_ID": "2025-271Y", "EPOCH": "2025-12-04T02:34:25.508352", "MEAN_MOTION": 15.84226755, "ECCENTRICITY": 0.00097052, "INCLINATION": 53.1556, "RA_OF_ASC_NODE": 229.5367, "ARG_OF_PERICENTER": 335.6046, "MEAN_ANOMALY": 24.4518, "EPHEMERIS_TYPE": 0, "CLASSIFICATION_TYPE": "U", "NORAD_CAT_ID": 66639, "ELEMENT_SET_NO": 999, "REV_AT_EPOCH": 285, "BSTAR": 0.0030756132, "MEAN_MOTION_DOT": 0.00777445, "MEAN_MOTION_DDOT": 0}, "tle": {"line1": "1 66639U 25271Y   25338.10723968  .00777445  00000+0  30756-2 0  9990", "line2": "2 66639  53.1556 229.5367 0009705 335.6046  24.4518 15.84226755  2853"}}, "geometry": {"type": "Point", "coordinates": [62.27136765482147, -21.004914850157896]}}, {"type": "Feature", "properties": {"norad_id": 66640, "name": "STARLINK-35921", "group": "last-30-days", "lat": -13.868588192431421, "lon": 56.226182571670655, "alt_km": 331.40452041078606, "timestamp": "2025-12-04T21:36:14.653822+00:00", "meta": {"OBJECT_NAME": "STARLINK-35921", "OBJECT_ID": "2025-271Z", "EPOCH": "2025-12-04T07:07:23.950272", "MEAN_MOTION": 15.81318878, "ECCENTRICITY": 0.0004963, "INCLINATION": 53.1562, "RA_OF_ASC_NODE": 228.5854, "ARG_OF_PERICENTER": 9.2257, "MEAN_ANOMALY": 350.8856, "EPHEMERIS_TYPE": 0, "CLASSIFICATION_TYPE": "U", "NORAD_CAT_ID": 66640, "ELEMENT_SET_NO": 999, "REV_AT_EPOCH": 288, "BSTAR": 0.0015697768, "MEAN_MOTION_DOT": 0.00327985, "MEAN_MOTION_DDOT": 0}, "tle": {"line1": "1 66640U 25271Z   25338.29680498  .00327985  00000+0  15698-2 0  9990", "line2": "2 66640  53.1562 228.5854 0004963   9.2257 350.8856 15.81318878  2880"}}, "geometry": {"type": "Point", "coordinates": [56.226182571670655, -13.868588192431421]}}, {"type": "Feature", "properties": {"norad_id": 66641, "name": "STARLINK-35923", "group": "last-30-days", "lat": -22.07205973579702, "lon": 63.23582175794221, "alt_km": 332.08470728252996, "timestamp": "2025-12-04T21:36:14.653832+00:00", "meta": {"OBJECT_NAME": "STARLINK-35923", "OBJECT_ID": "2025-271AA", "EPOCH": "2025-12-04T04:02:26.143296", "MEAN_MOTION": 15.81718152, "ECCENTRICITY": 0.00011943, "INCLINATION": 53.1554, "RA_OF_ASC_NODE": 229.2043, "ARG_OF_PERICENTER": 158.0841, "MEAN_ANOMALY": 202.0234, "EPHEMERIS_TYPE": 0, "CLASSIFICATION_TYPE": "U", "NORAD_CAT_ID": 66641, "ELEMENT_SET_NO": 999, "REV_AT_EPOCH": 286, "BSTAR": -0.0043987252, "MEAN_MOTION_DOT": -0.00822461, "MEAN_MOTION_DDOT": 0}, "tle": {"line1": "1 66641U 25271AA  25338.16835814 -.00822461  00000+0 -43987-2 0  9994", "line2": "2 66641  53.1554 229.2043 0001194 158.0841 202.0234 15.81718152  2860"}}, "geometry": {"type": "Point", "coordinates": [63.23582175794221, -22.07205973579702]}}, {"type": "Feature", "properties": {"norad_id": 66642, "name": "STARLINK-35926", "group": "last-30-days", "lat": -20.409500258991493, "lon": 61.740304321455284, "alt_km": 331.75303713148696, "timestamp": "2025-12-04T21:36:14.653842+00:00", "meta": {"OBJECT_NAME": "STARLINK-35926", "OBJECT_ID": "2025-271AB", "EPOCH": "2025-12-04T04:02:59.482464", "MEAN_MOTION": 15.8171776, "ECCENTRICITY": 7.72e-05, "INCLINATION": 53.1557, "RA_OF_ASC_NODE": 229.2075, "ARG_OF_PERICENTER": 174.0832, "MEAN_ANOMALY": 186.0201, "EPHEMERIS_TYPE": 0, "CLASSIFICATION_TYPE": "U", "NORAD_CAT_ID": 66642, "ELEMENT_SET_NO": 999, "REV_AT_EPOCH": 282, "BSTAR": -0.0043016171, "MEAN_MOTION_DOT": -0.0080574, "MEAN_MOTION_DDOT": 0}, "tle": {"line1": "1 66642U 25271AB  25338.16874401 -.00805740  00000+0 -43016-2 0  9994", "line2": "2 66642  53.1557 229.2075 0000772 174.0832 186.0201 15.81717760  2823"}}, "geometry": {"type": "Point", "coordinates": [61.740304321455284, -20.409500258991493]}}]}